<?xml version="1.0" encoding="UTF-8"?>
<ndm xmlns:xsi="http://www.w3.org/2001/XMLSchema-instance" xsi:noNamespaceSchemaLocation="https://sanaregistry.org/r/ndmxml_unqualified/ndmxml-2.0.0-master-2.0.xsd">
<omm id="CCSDS_OMM_VERS" version="2.0">
<header><CREATION_DATE/><ORIGINATOR/></header><body><segment><metadata><OBJECT_NAME>KUIPER-00053</OBJECT_NAME><OBJECT_ID>2025-134P</OBJECT_ID><CENTER_NAME>EARTH</CENTER_NAME><REF_FRAME>TEME</REF_FRAME><TIME_SYSTEM>UTC</TIME_SYSTEM><MEAN_ELEMENT_THEORY>SGP4</MEAN_ELEMENT_THEORY></metadata><data><meanElements><EPOCH>2025-12-20T00:33:39.159360</EPOCH><MEAN_MOTION>14.79946303</MEAN_MOTION><ECCENTRICITY>.00013901</ECCENTRICITY><INCLINATION>51.8996</INCLINATION><RA_OF_ASC_NODE>215.3722</RA_OF_ASC_NODE><ARG_OF_PERICENTER>91.9965</ARG_OF_PERICENTER><MEAN_ANOMALY>268.1157</MEAN_ANOMALY></meanElements><tleParameters><EPHEMERIS_TYPE>0</EPHEMERIS_TYPE><CLASSIFICATION_TYPE>U</CLASSIFICATION_TYPE><NORAD_CAT_ID>64513</NORAD_CAT_ID><ELEMENT_SET_NO>999</ELEMENT_SET_NO><REV_AT_EPOCH>2841</REV_AT_EPOCH><BSTAR>.37359822E-3</BSTAR><MEAN_MOTION_DOT>.2629E-4</MEAN_MOTION_DOT><MEAN_MOTION_DDOT>0</MEAN_MOTION_DDOT></tleParameters></data></segment></body></omm>
<omm id="CCSDS_OMM_VERS" version="2.0">
<header><CREATION_DATE/><ORIGINATOR/></header><body><segment><metadata><OBJECT_NAME>KUIPER-00054</OBJECT_NAME><OBJECT_ID>2025-134Q</OBJECT_ID><CENTER_NAME>EARTH</CENTER_NAME><REF_FRAME>TEME</REF_FRAME><TIME_SYSTEM>UTC</TIME_SYSTEM><MEAN_ELEMENT_THEORY>SGP4</MEAN_ELEMENT_THEORY></metadata><data><meanElements><EPOCH>2025-12-20T00:40:46.377984</EPOCH><MEAN_MOTION>14.79963206</MEAN_MOTION><ECCENTRICITY>.00058858</ECCENTRICITY><INCLINATION>51.8971</INCLINATION><RA_OF_ASC_NODE>210.3360</RA_OF_ASC_NODE><ARG_OF_PERICENTER>52.9725</ARG_OF_PERICENTER><MEAN_ANOMALY>307.1775</MEAN_ANOMALY></meanElements><tleParameters><EPHEMERIS_TYPE>0</EPHEMERIS_TYPE><CLASSIFICATION_TYPE>U</CLASSIFICATION_TYPE><NORAD_CAT_ID>64514</NORAD_CAT_ID><ELEMENT_SET_NO>999</ELEMENT_SET_NO><REV_AT_EPOCH>2848</REV_AT_EPOCH><BSTAR>.2863485E-3</BSTAR><MEAN_MOTION_DOT>.1963E-4</MEAN_MOTION_DOT><MEAN_MOTION_DDOT>0</MEAN_MOTION_DDOT></tleParameters></data></segment></body></omm>
<omm id="CCSDS_OMM_VERS" version="2.0">
<header><CREATION_DATE/><ORIGINATOR/></header><body><segment><metadata><OBJECT_NAME>KUIPER-00055</OBJECT_NAME><OBJECT_ID>2025-134R</OBJECT_ID><CENTER_NAME>EARTH</CENTER_NAME><REF_FRAME>TEME</REF_FRAME><TIME_SYSTEM>UTC</TIME_SYSTEM><MEAN_ELEMENT_THEORY>SGP4</MEAN_ELEMENT_THEORY></metadata><data><meanElements><EPOCH>2025-12-19T23:28:10.878816</EPOCH><MEAN_MOTION>15.18040386</MEAN_MOTION><ECCENTRICITY>.00023866</ECCENTRICITY><INCLINATION>51.8900</INCLINATION><RA_OF_ASC_NODE>194.5427</RA_OF_ASC_NODE><ARG_OF_PERICENTER>205.9826</ARG_OF_PERICENTER><MEAN_ANOMALY>154.1033</MEAN_ANOMALY></meanElements><tleParameters><EPHEMERIS_TYPE>0</EPHEMERIS_TYPE><CLASSIFICATION_TYPE>U</CLASSIFICATION_TYPE><NORAD_CAT_ID>64515</NORAD_CAT_ID><ELEMENT_SET_NO>999</ELEMENT_SET_NO><REV_AT_EPOCH>2870</REV_AT_EPOCH><BSTAR>.39161244E-3</BSTAR><MEAN_MOTION_DOT>.7767E-4</MEAN_MOTION_DOT><MEAN_MOTION_DDOT>0</MEAN_MOTION_DDOT></tleParameters></data></segment></body></omm>
<omm id="CCSDS_OMM_VERS" version="2.0">
<header><CREATION_DATE/><ORIGINATOR/></header><body><segment><metadata><OBJECT_NAME>KUIPER-00056</OBJECT_NAME><OBJECT_ID>2025-134S</OBJECT_ID><CENTER_NAME>EARTH</CENTER_NAME><REF_FRAME>TEME</REF_FRAME><TIME_SYSTEM>UTC</TIME_SYSTEM><MEAN_ELEMENT_THEORY>SGP4</MEAN_ELEMENT_THEORY></metadata><data><meanElements><EPOCH>2025-12-20T08:37:21.453312</EPOCH><MEAN_MOTION>14.79933266</MEAN_MOTION><ECCENTRICITY>.0003082</ECCENTRICITY><INCLINATION>51.9013</INCLINATION><RA_OF_ASC_NODE>214.9223</RA_OF_ASC_NODE><ARG_OF_PERICENTER>64.3728</ARG_OF_PERICENTER><MEAN_ANOMALY>295.7552</MEAN_ANOMALY></meanElements><tleParameters><EPHEMERIS_TYPE>0</EPHEMERIS_TYPE><CLASSIFICATION_TYPE>U</CLASSIFICATION_TYPE><NORAD_CAT_ID>64516</NORAD_CAT_ID><ELEMENT_SET_NO>999</ELEMENT_SET_NO><REV_AT_EPOCH>2845</REV_AT_EPOCH><BSTAR>.30728E-3</BSTAR><MEAN_MOTION_DOT>.2122E-4</MEAN_MOTION_DOT><MEAN_MOTION_DDOT>0</MEAN_MOTION_DDOT></tleParameters></data></segment></body></omm>
<omm id="CCSDS_OMM_VERS" version="2.0">
<header><CREATION_DATE/><ORIGINATOR/></header><body><segment><metadata><OBJECT_NAME>KUIPER-00057</OBJECT_NAME><OBJECT_ID>2025-134T</OBJECT_ID><CENTER_NAME>EARTH</CENTER_NAME><REF_FRAME>TEME</REF_FRAME><TIME_SYSTEM>UTC</TIME_SYSTEM><MEAN_ELEMENT_THEORY>SGP4</MEAN_ELEMENT_THEORY></metadata><data><meanElements><EPOCH>2025-12-19T21:05:03.263136</EPOCH><MEAN_MOTION>14.79917204</MEAN_MOTION><ECCENTRICITY>.0009505</ECCENTRICITY><INCLINATION>51.9007</INCLINATION><RA_OF_ASC_NODE>224.5346</RA_OF_ASC_NODE><ARG_OF_PERICENTER>17.8122</ARG_OF_PERICENTER><MEAN_ANOMALY>342.3171</MEAN_ANOMALY></meanElements><tleParameters><EPHEMERIS_TYPE>0</EPHEMERIS_TYPE><CLASSIFICATION_TYPE>U</CLASSIFICATION_TYPE><NORAD_CAT_ID>64517</NORAD_CAT_ID><ELEMENT_SET_NO>999</ELEMENT_SET_NO><REV_AT_EPOCH>2827</REV_AT_EPOCH><BSTAR>.28383E-3</BSTAR><MEAN_MOTION_DOT>.1941E-4</MEAN_MOTION_DOT><MEAN_MOTION_DDOT>0</MEAN_MOTION_DDOT></tleParameters></data></segment></body></omm>
<omm id="CCSDS_OMM_VERS" version="2.0">
<header><CREATION_DATE/><ORIGINATOR/></header><body><segment><metadata><OBJECT_NAME>KUIPER-00058</OBJECT_NAME><OBJECT_ID>2025-134U</OBJECT_ID><CENTER_NAME>EARTH</CENTER_NAME><REF_FRAME>TEME</REF_FRAME><TIME_SYSTEM>UTC</TIME_SYSTEM><MEAN_ELEMENT_THEORY>SGP4</MEAN_ELEMENT_THEORY></metadata><data><meanElements><EPOCH>2025-12-20T08:35:54.451104</EPOCH><MEAN_MOTION>14.79933220</MEAN_MOTION><ECCENTRICITY>.0004884</ECCENTRICITY><INCLINATION>51.9000</INCLINATION><RA_OF_ASC_NODE>216.3324</RA_OF_ASC_NODE><ARG_OF_PERICENTER>67.2820</ARG_OF_PERICENTER><MEAN_ANOMALY>292.8658</MEAN_ANOMALY></meanElements><tleParameters><EPHEMERIS_TYPE>0</EPHEMERIS_TYPE><CLASSIFICATION_TYPE>U</CLASSIFICATION_TYPE><NORAD_CAT_ID>64518</NORAD_CAT_ID><ELEMENT_SET_NO>999</ELEMENT_SET_NO><REV_AT_EPOCH>2843</REV_AT_EPOCH><BSTAR>.33594E-3</BSTAR><MEAN_MOTION_DOT>.234E-4</MEAN_MOTION_DOT><MEAN_MOTION_DDOT>0</MEAN_MOTION_DDOT></tleParameters></data></segment></body></omm>
<omm id="CCSDS_OMM_VERS" version="2.0">
<header><CREATION_DATE/><ORIGINATOR/></header><body><segment><metadata><OBJECT_NAME>KUIPER-00059</OBJECT_NAME><OBJECT_ID>2025-134V</OBJECT_ID><CENTER_NAME>EARTH</CENTER_NAME><REF_FRAME>TEME</REF_FRAME><TIME_SYSTEM>UTC</TIME_SYSTEM><MEAN_ELEMENT_THEORY>SGP4</MEAN_ELEMENT_THEORY></metadata><data><meanElements><EPOCH>2025-12-19T08:24:57.383424</EPOCH><MEAN_MOTION>14.79779176</MEAN_MOTION><ECCENTRICITY>.0003526</ECCENTRICITY><INCLINATION>51.8998</INCLINATION><RA_OF_ASC_NODE>215.8431</RA_OF_ASC_NODE><ARG_OF_PERICENTER>185.1106</ARG_OF_PERICENTER><MEAN_ANOMALY>174.9821</MEAN_ANOMALY></meanElements><tleParameters><EPHEMERIS_TYPE>0</EPHEMERIS_TYPE><CLASSIFICATION_TYPE>U</CLASSIFICATION_TYPE><NORAD_CAT_ID>64519</NORAD_CAT_ID><ELEMENT_SET_NO>999</ELEMENT_SET_NO><REV_AT_EPOCH>2835</REV_AT_EPOCH><BSTAR>-.22681E-2</BSTAR><MEAN_MOTION_DOT>-.17406E-3</MEAN_MOTION_DOT><MEAN_MOTION_DDOT>0</MEAN_MOTION_DDOT></tleParameters></data></segment></body></omm>
<omm id="CCSDS_OMM_VERS" version="2.0">
<header><CREATION_DATE/><ORIGINATOR/></header><body><segment><metadata><OBJECT_NAME>KUIPER-00060</OBJECT_NAME><OBJECT_ID>2025-134W</OBJECT_ID><CENTER_NAME>EARTH</CENTER_NAME><REF_FRAME>TEME</REF_FRAME><TIME_SYSTEM>UTC</TIME_SYSTEM><MEAN_ELEMENT_THEORY>SGP4</MEAN_ELEMENT_THEORY></metadata><data><meanElements><EPOCH>2025-12-20T00:35:08.431296</EPOCH><MEAN_MOTION>14.79961085</MEAN_MOTION><ECCENTRICITY>.00028356</ECCENTRICITY><INCLINATION>51.9012</INCLINATION><RA_OF_ASC_NODE>213.9046</RA_OF_ASC_NODE><ARG_OF_PERICENTER>101.3895</ARG_OF_PERICENTER><MEAN_ANOMALY>258.7386</MEAN_ANOMALY></meanElements><tleParameters><EPHEMERIS_TYPE>0</EPHEMERIS_TYPE><CLASSIFICATION_TYPE>U</CLASSIFICATION_TYPE><NORAD_CAT_ID>64520</NORAD_CAT_ID><ELEMENT_SET_NO>999</ELEMENT_SET_NO><REV_AT_EPOCH>2842</REV_AT_EPOCH><BSTAR>.33304471E-3</BSTAR><MEAN_MOTION_DOT>.232E-4</MEAN_MOTION_DOT><MEAN_MOTION_DDOT>0</MEAN_MOTION_DDOT></tleParameters></data></segment></body></omm>

</ndm>
