KUIPER-00053            
1 64513U 25134P   25354.02336990  .00002629  00000+0  37360-3 0  9995
2 64513  51.8996 215.3722 0001390  91.9965 268.1157 14.79946303 28414
KUIPER-00054            
1 64514U 25134Q   25354.02831456  .00001963  00000+0  28635-3 0  9998
2 64514  51.8971 210.3360 0005885  52.9725 307.1775 14.79963206 28483
KUIPER-00055            
1 64515U 25134R   25353.97790369  .00007767  00000+0  39161-3 0  9993
2 64515  51.8900 194.5427 0002386 205.9826 154.1033 15.18040386 28709
KUIPER-00056            
1 64516U 25134S   25354.35927608  .00002122  00000+0  30728-3 0  9995
2 64516  51.9013 214.9223 0003082  64.3728 295.7552 14.79933266 28453
KUIPER-00057            
1 64517U 25134T   25353.87850999  .00001941  00000+0  28383-3 0  9992
2 64517  51.9007 224.5346 0009505  17.8122 342.3171 14.79917204 28277
KUIPER-00058            
1 64518U 25134U   25354.35826911  .00002340  00000+0  33594-3 0  9998
2 64518  51.9000 216.3324 0004884  67.2820 292.8658 14.79933220 28438
KUIPER-00059            
1 64519U 25134V   25353.35066416 -.00017406  00000+0 -22681-2 0  9999
2 64519  51.8998 215.8431 0003526 185.1106 174.9821 14.79779176 28357
KUIPER-00060            
1 64520U 25134W   25354.02440314  .00002320  00000+0  33304-3 0  9991
2 64520  51.9012 213.9046 0002835 101.3895 258.7386 14.79961085 28422
